STARLINK-35513          
1 65930U 25225W   25308.50003471  .00048812  00000+0  88177-3 0  9993
2 65930  53.1609  29.1234 0001108  76.3971 279.8576 15.49258859  5288
STARLINK-35526          
1 65931U 25225X   25308.50003471  .00045897  00000+0  82987-3 0  9997
2 65931  53.1607  29.1112 0001221  86.0328 275.9712 15.49259920  5281
STARLINK-35436          
1 65932U 25225Y   25308.50003471  .00062753  00000+0  11295-2 0  9991
2 65932  53.1607  29.1080 0001286  82.6702 281.2521 15.49253364  5289
STARLINK-35192          
1 65933U 25225Z   25308.50003471  .00061615  00000+0  11093-2 0  9994
2 65933  53.1608  29.0956 0001207  82.8798 286.7900 15.49253185  5284
STARLINK-33921          
1 65934U 25225AA  25308.50003471  .00055238  00000+0  99603-3 0  9993
2 65934  53.1607  29.1039 0001281  83.7991 282.0396 15.49257267  5276
STARLINK-35155          
1 65935U 25225AB  25308.50003471  .00055791  00000+0  10058-2 0  9994
2 65935  53.1607  29.0998 0001122  75.4655 292.2878 15.49257208  5272
STARLINK-35161          
1 65936U 25225AC  25308.50003471  .00057726  00000+0  10403-2 0  9999
2 65936  53.1609  29.0921 0001120  78.2210 293.3647 15.49255079  5288
STARLINK-35473          
1 65937U 25225AD  25308.50003471  .00058332  00000+0  10510-2 0  9993
2 65937  53.1608  29.0887 0001185  82.2409 291.2609 15.49255448  5280
2025-226A               
1 65938U 25226A   25308.50133017  .00010892  00000+0  63742-3 0  9990
2 65938  97.6669  22.7057 0015006 196.6787 163.3951 15.11924851  3698
2025-226B               
1 65939U 25226B   25308.52953909  .00005764  00000+0  35937-3 0  9990
2 65939  97.6632  22.6561 0020970 199.3949 160.6484 15.09755065  3680
2025-226C               
1 65940U 25226C   25308.50313282  .00010536  00000+0  61871-3 0  9993
2 65940  97.6577  22.6764 0014959 194.6324 165.4475 15.11812020  3681
YOTSUBA-KULOVER         
1 65941U 98067XN  25307.80288005  .00054932  00000+0  85064-3 0  9991
2 65941  51.6325 334.7856 0002645   1.5585 358.5413 15.53493482  3798
