CCSDS_OMM_VERS = 2.0
CREATION_DATE  = 
ORIGINATOR     = 

OBJECT_NAME    = STARLINK-35513
OBJECT_ID      = 2025-225W
CENTER_NAME    = EARTH
REF_FRAME      = TEME
TIME_SYSTEM    = UTC
MEAN_ELEMENT_THEORY = SGP/SGP4

EPOCH          = 2025-11-04T12:00:02.998944
MEAN_MOTION    = 15.49258859
ECCENTRICITY   = .0001108
INCLINATION    = 53.1609
RA_OF_ASC_NODE = 29.1234
ARG_OF_PERICENTER = 76.3971
MEAN_ANOMALY   = 279.8576

EPHEMERIS_TYPE = 0
CLASSIFICATION_TYPE = U
NORAD_CAT_ID   = 65930
ELEMENT_SET_NO = 999
REV_AT_EPOCH   = 528
BSTAR          = .88177E-3
MEAN_MOTION_DOT = .48812E-3
MEAN_MOTION_DDOT = 0

CCSDS_OMM_VERS = 2.0
CREATION_DATE  = 
ORIGINATOR     = 

OBJECT_NAME    = STARLINK-35526
OBJECT_ID      = 2025-225X
CENTER_NAME    = EARTH
REF_FRAME      = TEME
TIME_SYSTEM    = UTC
MEAN_ELEMENT_THEORY = SGP/SGP4

EPOCH          = 2025-11-04T12:00:02.998944
MEAN_MOTION    = 15.49259920
ECCENTRICITY   = .0001221
INCLINATION    = 53.1607
RA_OF_ASC_NODE = 29.1112
ARG_OF_PERICENTER = 86.0328
MEAN_ANOMALY   = 275.9712

EPHEMERIS_TYPE = 0
CLASSIFICATION_TYPE = U
NORAD_CAT_ID   = 65931
ELEMENT_SET_NO = 999
REV_AT_EPOCH   = 528
BSTAR          = .82987E-3
MEAN_MOTION_DOT = .45897E-3
MEAN_MOTION_DDOT = 0

CCSDS_OMM_VERS = 2.0
CREATION_DATE  = 
ORIGINATOR     = 

OBJECT_NAME    = STARLINK-35436
OBJECT_ID      = 2025-225Y
CENTER_NAME    = EARTH
REF_FRAME      = TEME
TIME_SYSTEM    = UTC
MEAN_ELEMENT_THEORY = SGP/SGP4

EPOCH          = 2025-11-04T12:00:02.998944
MEAN_MOTION    = 15.49253364
ECCENTRICITY   = .0001286
INCLINATION    = 53.1607
RA_OF_ASC_NODE = 29.1080
ARG_OF_PERICENTER = 82.6702
MEAN_ANOMALY   = 281.2521

EPHEMERIS_TYPE = 0
CLASSIFICATION_TYPE = U
NORAD_CAT_ID   = 65932
ELEMENT_SET_NO = 999
REV_AT_EPOCH   = 528
BSTAR          = .11295E-2
MEAN_MOTION_DOT = .62753E-3
MEAN_MOTION_DDOT = 0

CCSDS_OMM_VERS = 2.0
CREATION_DATE  = 
ORIGINATOR     = 

OBJECT_NAME    = STARLINK-35192
OBJECT_ID      = 2025-225Z
CENTER_NAME    = EARTH
REF_FRAME      = TEME
TIME_SYSTEM    = UTC
MEAN_ELEMENT_THEORY = SGP/SGP4

EPOCH          = 2025-11-04T12:00:02.998944
MEAN_MOTION    = 15.49253185
ECCENTRICITY   = .0001207
INCLINATION    = 53.1608
RA_OF_ASC_NODE = 29.0956
ARG_OF_PERICENTER = 82.8798
MEAN_ANOMALY   = 286.7900

EPHEMERIS_TYPE = 0
CLASSIFICATION_TYPE = U
NORAD_CAT_ID   = 65933
ELEMENT_SET_NO = 999
REV_AT_EPOCH   = 528
BSTAR          = .11093E-2
MEAN_MOTION_DOT = .61615E-3
MEAN_MOTION_DDOT = 0

CCSDS_OMM_VERS = 2.0
CREATION_DATE  = 
ORIGINATOR     = 

OBJECT_NAME    = STARLINK-33921
OBJECT_ID      = 2025-225AA
CENTER_NAME    = EARTH
REF_FRAME      = TEME
TIME_SYSTEM    = UTC
MEAN_ELEMENT_THEORY = SGP/SGP4

EPOCH          = 2025-11-04T12:00:02.998944
MEAN_MOTION    = 15.49257267
ECCENTRICITY   = .0001281
INCLINATION    = 53.1607
RA_OF_ASC_NODE = 29.1039
ARG_OF_PERICENTER = 83.7991
MEAN_ANOMALY   = 282.0396

EPHEMERIS_TYPE = 0
CLASSIFICATION_TYPE = U
NORAD_CAT_ID   = 65934
ELEMENT_SET_NO = 999
REV_AT_EPOCH   = 527
BSTAR          = .99603E-3
MEAN_MOTION_DOT = .55238E-3
MEAN_MOTION_DDOT = 0

CCSDS_OMM_VERS = 2.0
CREATION_DATE  = 
ORIGINATOR     = 

OBJECT_NAME    = STARLINK-35155
OBJECT_ID      = 2025-225AB
CENTER_NAME    = EARTH
REF_FRAME      = TEME
TIME_SYSTEM    = UTC
MEAN_ELEMENT_THEORY = SGP/SGP4

EPOCH          = 2025-11-04T12:00:02.998944
MEAN_MOTION    = 15.49257208
ECCENTRICITY   = .0001122
INCLINATION    = 53.1607
RA_OF_ASC_NODE = 29.0998
ARG_OF_PERICENTER = 75.4655
MEAN_ANOMALY   = 292.2878

EPHEMERIS_TYPE = 0
CLASSIFICATION_TYPE = U
NORAD_CAT_ID   = 65935
ELEMENT_SET_NO = 999
REV_AT_EPOCH   = 527
BSTAR          = .10058E-2
MEAN_MOTION_DOT = .55791E-3
MEAN_MOTION_DDOT = 0

CCSDS_OMM_VERS = 2.0
CREATION_DATE  = 
ORIGINATOR     = 

OBJECT_NAME    = STARLINK-35161
OBJECT_ID      = 2025-225AC
CENTER_NAME    = EARTH
REF_FRAME      = TEME
TIME_SYSTEM    = UTC
MEAN_ELEMENT_THEORY = SGP/SGP4

EPOCH          = 2025-11-04T12:00:02.998944
MEAN_MOTION    = 15.49255079
ECCENTRICITY   = .000112
INCLINATION    = 53.1609
RA_OF_ASC_NODE = 29.0921
ARG_OF_PERICENTER = 78.2210
MEAN_ANOMALY   = 293.3647

EPHEMERIS_TYPE = 0
CLASSIFICATION_TYPE = U
NORAD_CAT_ID   = 65936
ELEMENT_SET_NO = 999
REV_AT_EPOCH   = 528
BSTAR          = .10403E-2
MEAN_MOTION_DOT = .57726E-3
MEAN_MOTION_DDOT = 0

CCSDS_OMM_VERS = 2.0
CREATION_DATE  = 
ORIGINATOR     = 

OBJECT_NAME    = STARLINK-35473
OBJECT_ID      = 2025-225AD
CENTER_NAME    = EARTH
REF_FRAME      = TEME
TIME_SYSTEM    = UTC
MEAN_ELEMENT_THEORY = SGP/SGP4

EPOCH          = 2025-11-04T12:00:02.998944
MEAN_MOTION    = 15.49255448
ECCENTRICITY   = .0001185
INCLINATION    = 53.1608
RA_OF_ASC_NODE = 29.0887
ARG_OF_PERICENTER = 82.2409
MEAN_ANOMALY   = 291.2609

EPHEMERIS_TYPE = 0
CLASSIFICATION_TYPE = U
NORAD_CAT_ID   = 65937
ELEMENT_SET_NO = 999
REV_AT_EPOCH   = 528
BSTAR          = .1051E-2
MEAN_MOTION_DOT = .58332E-3
MEAN_MOTION_DDOT = 0

CCSDS_OMM_VERS = 2.0
CREATION_DATE  = 
ORIGINATOR     = 

OBJECT_NAME    = 2025-226A
OBJECT_ID      = 2025-226A
CENTER_NAME    = EARTH
REF_FRAME      = TEME
TIME_SYSTEM    = UTC
MEAN_ELEMENT_THEORY = SGP/SGP4

EPOCH          = 2025-11-04T12:01:54.926688
MEAN_MOTION    = 15.11924851
ECCENTRICITY   = .0015006
INCLINATION    = 97.6669
RA_OF_ASC_NODE = 22.7057
ARG_OF_PERICENTER = 196.6787
MEAN_ANOMALY   = 163.3951

EPHEMERIS_TYPE = 0
CLASSIFICATION_TYPE = U
NORAD_CAT_ID   = 65938
ELEMENT_SET_NO = 999
REV_AT_EPOCH   = 369
BSTAR          = .63742E-3
MEAN_MOTION_DOT = .10892E-3
MEAN_MOTION_DDOT = 0

CCSDS_OMM_VERS = 2.0
CREATION_DATE  = 
ORIGINATOR     = 

OBJECT_NAME    = 2025-226B
OBJECT_ID      = 2025-226B
CENTER_NAME    = EARTH
REF_FRAME      = TEME
TIME_SYSTEM    = UTC
MEAN_ELEMENT_THEORY = SGP/SGP4

EPOCH          = 2025-11-04T12:42:32.177376
MEAN_MOTION    = 15.09755065
ECCENTRICITY   = .002097
INCLINATION    = 97.6632
RA_OF_ASC_NODE = 22.6561
ARG_OF_PERICENTER = 199.3949
MEAN_ANOMALY   = 160.6484

EPHEMERIS_TYPE = 0
CLASSIFICATION_TYPE = U
NORAD_CAT_ID   = 65939
ELEMENT_SET_NO = 999
REV_AT_EPOCH   = 368
BSTAR          = .35937E-3
MEAN_MOTION_DOT = .5764E-4
MEAN_MOTION_DDOT = 0

CCSDS_OMM_VERS = 2.0
CREATION_DATE  = 
ORIGINATOR     = 

OBJECT_NAME    = 2025-226C
OBJECT_ID      = 2025-226C
CENTER_NAME    = EARTH
REF_FRAME      = TEME
TIME_SYSTEM    = UTC
MEAN_ELEMENT_THEORY = SGP/SGP4

EPOCH          = 2025-11-04T12:04:30.675648
MEAN_MOTION    = 15.11812020
ECCENTRICITY   = .0014959
INCLINATION    = 97.6577
RA_OF_ASC_NODE = 22.6764
ARG_OF_PERICENTER = 194.6324
MEAN_ANOMALY   = 165.4475

EPHEMERIS_TYPE = 0
CLASSIFICATION_TYPE = U
NORAD_CAT_ID   = 65940
ELEMENT_SET_NO = 999
REV_AT_EPOCH   = 368
BSTAR          = .61871E-3
MEAN_MOTION_DOT = .10536E-3
MEAN_MOTION_DDOT = 0

CCSDS_OMM_VERS = 2.0
CREATION_DATE  = 
ORIGINATOR     = 

OBJECT_NAME    = YOTSUBA-KULOVER
OBJECT_ID      = 1998-067XN
CENTER_NAME    = EARTH
REF_FRAME      = TEME
TIME_SYSTEM    = UTC
MEAN_ELEMENT_THEORY = SGP/SGP4

EPOCH          = 2025-11-03T19:16:08.836320
MEAN_MOTION    = 15.53493482
ECCENTRICITY   = .00026455
INCLINATION    = 51.6325
RA_OF_ASC_NODE = 334.7856
ARG_OF_PERICENTER = 1.5585
MEAN_ANOMALY   = 358.5413

EPHEMERIS_TYPE = 0
CLASSIFICATION_TYPE = U
NORAD_CAT_ID   = 65941
ELEMENT_SET_NO = 999
REV_AT_EPOCH   = 379
BSTAR          = .85063962E-3
MEAN_MOTION_DOT = .54932E-3
MEAN_MOTION_DDOT = 0

